{"type": "FeatureCollection", "features": [ {"type": "Feature", "properties": {"norad_id": 38552, "name": "METEOSAT-10 (MSG-3)", "group": "weather", "lat": -1.5113102236094849, "lon": -97.8421066804316, "alt_km": 35783.875185600686, "timestamp": "2025-12-20T11:30:28.013384+00:00", "meta": {"OBJECT_NAME": "METEOSAT-10 (MSG-3)", "OBJECT_ID": "2012-035B", "EPOCH": "2025-12-19T08:07:49.924128", "MEAN_MOTION": 1.00276524, "ECCENTRICITY": 6.93e-05, "INCLINATION": 4.2433, "RA_OF_ASC_NODE": 61.706, "ARG_OF_PERICENTER": 270.066, "MEAN_ANOMALY": 238.6463, "EPHEMERIS_TYPE": 0, "CLASSIFICATION_TYPE": "U", "NORAD_CAT_ID": 38552, "ELEMENT_SET_NO": 999, "REV_AT_EPOCH": 4905, "BSTAR": 0, "MEAN_MOTION_DOT": 1.7e-07, "MEAN_MOTION_DDOT": 0}, "tle": {"line1": "1 38552U 12035B   25353.33877227  .00000017  00000+0  00000+0 0  9997", "line2": "2 38552   4.2433  61.7060 0000693 270.0660 238.6463  1.00276524 49057"}}, "geometry": {"type": "Point", "coordinates": [-97.8421066804316, -1.5113102236094849]}}, {"type": "Feature", "properties": {"norad_id": 38771, "name": "METOP-B", "group": "weather", "lat": 68.50771592523076, "lon": 21.482292264604634, "alt_km": 812.6618038464785, "timestamp": "2025-12-20T11:30:28.013395+00:00", "meta": {"OBJECT_NAME": "METOP-B", "OBJECT_ID": "2012-049A", "EPOCH": "2025-12-20T02:43:52.802112", "MEAN_MOTION": 14.21410994, "ECCENTRICITY": 0.0003161, "INCLINATION": 98.6788, "RA_OF_ASC_NODE": 43.9472, "ARG_OF_PERICENTER": 128.5143, "MEAN_ANOMALY": 231.6318, "EPHEMERIS_TYPE": 0, "CLASSIFICATION_TYPE": "U", "NORAD_CAT_ID": 38771, "ELEMENT_SET_NO": 999, "REV_AT_EPOCH": 68782, "BSTAR": 6.5683e-05, "MEAN_MOTION_DOT": 1e-06, "MEAN_MOTION_DDOT": 0}, "tle": {"line1": "1 38771U 12049A   25354.11380558  .00000100  00000+0  65683-4 0  9994", "line2": "2 38771  98.6788  43.9472 0003161 128.5143 231.6318 14.21410994687828"}}, "geometry": {"type": "Point", "coordinates": [21.482292264604634, 68.50771592523076]}}, {"type": "Feature", "properties": {"norad_id": 39216, "name": "INSAT-3D", "group": "weather", "lat": -1.1612993320961162, "lon": 31.44811492509047, "alt_km": 35787.530305069246, "timestamp": "2025-12-20T11:30:28.013407+00:00", "meta": {"OBJECT_NAME": "INSAT-3D", "OBJECT_ID": "2013-038B", "EPOCH": "2025-12-19T22:26:21.693120", "MEAN_MOTION": 1.00289095, "ECCENTRICITY": 0.0001991, "INCLINATION": 1.4625, "RA_OF_ASC_NODE": 84.9171, "ARG_OF_PERICENTER": 170.3603, "MEAN_ANOMALY": 299.5565, "EPHEMERIS_TYPE": 0, "CLASSIFICATION_TYPE": "U", "NORAD_CAT_ID": 39216, "ELEMENT_SET_NO": 999, "REV_AT_EPOCH": 4528, "BSTAR": 0, "MEAN_MOTION_DOT": -3.14e-06, "MEAN_MOTION_DDOT": 0}, "tle": {"line1": "1 39216U 13038B   25353.93497330 -.00000314  00000+0  00000+0 0  9999", "line2": "2 39216   1.4625  84.9171 0001991 170.3603 299.5565  1.00289095 45285"}}, "geometry": {"type": "Point", "coordinates": [31.44811492509047, -1.1612993320961162]}}, {"type": "Feature", "properties": {"norad_id": 39260, "name": "FENGYUN 3C", "group": "weather", "lat": 21.435698706594096, "lon": 155.13794581809063, "alt_km": 829.4718350599933, "timestamp": "2025-12-20T11:30:28.013418+00:00", "meta": {"OBJECT_NAME": "FENGYUN 3C", "OBJECT_ID": "2013-052A", "EPOCH": "2025-12-20T05:40:26.599008", "MEAN_MOTION": 14.15698451, "ECCENTRICITY": 0.0014702, "INCLINATION": 98.477, "RA_OF_ASC_NODE": 331.55, "ARG_OF_PERICENTER": 174.1829, "MEAN_ANOMALY": 185.9519, "EPHEMERIS_TYPE": 0, "CLASSIFICATION_TYPE": "U", "NORAD_CAT_ID": 39260, "ELEMENT_SET_NO": 999, "REV_AT_EPOCH": 63324, "BSTAR": 4.2807e-05, "MEAN_MOTION_DOT": 4.3e-07, "MEAN_MOTION_DDOT": 0}, "tle": {"line1": "1 39260U 13052A   25354.23641897  .00000043  00000+0  42807-4 0  9991", "line2": "2 39260  98.4770 331.5500 0014702 174.1829 185.9519 14.15698451633240"}}, "geometry": {"type": "Point", "coordinates": [155.13794581809063, 21.435698706594096]}}, {"type": "Feature", "properties": {"norad_id": 40069, "name": "METEOR-M 2", "group": "weather", "lat": -60.89034877813337, "lon": -12.672198945829512, "alt_km": 829.2746491374901, "timestamp": "2025-12-20T11:30:28.013429+00:00", "meta": {"OBJECT_NAME": "METEOR-M 2", "OBJECT_ID": "2014-037A", "EPOCH": "2025-12-20T05:02:30.155136", "MEAN_MOTION": 14.21390217, "ECCENTRICITY": 0.0005355, "INCLINATION": 98.49, "RA_OF_ASC_NODE": 331.5083, "ARG_OF_PERICENTER": 186.0372, "MEAN_ANOMALY": 174.0742, "EPHEMERIS_TYPE": 0, "CLASSIFICATION_TYPE": "U", "NORAD_CAT_ID": 40069, "ELEMENT_SET_NO": 999, "REV_AT_EPOCH": 59389, "BSTAR": 0.00021929, "MEAN_MOTION_DOT": 4.37e-06, "MEAN_MOTION_DDOT": 0}, "tle": {"line1": "1 40069U 14037A   25354.21007124  .00000437  00000+0  21929-3 0  9999", "line2": "2 40069  98.4900 331.5083 0005355 186.0372 174.0742 14.21390217593898"}}, "geometry": {"type": "Point", "coordinates": [-12.672198945829512, -60.89034877813337]}}, {"type": "Feature", "properties": {"norad_id": 40267, "name": "HIMAWARI-8", "group": "weather", "lat": 0.0036320127240335705, "lon": 42.59769144423549, "alt_km": 35787.4040961109, "timestamp": "2025-12-20T11:30:28.013441+00:00", "meta": {"OBJECT_NAME": "HIMAWARI-8", "OBJECT_ID": "2014-060A", "EPOCH": "2025-12-19T21:38:38.658912", "MEAN_MOTION": 1.00271304, "ECCENTRICITY": 8.59e-05, "INCLINATION": 0.0317, "RA_OF_ASC_NODE": 125.7318, "ARG_OF_PERICENTER": 169.0702, "MEAN_ANOMALY": 259.272, "EPHEMERIS_TYPE": 0, "CLASSIFICATION_TYPE": "U", "NORAD_CAT_ID": 40267, "ELEMENT_SET_NO": 999, "REV_AT_EPOCH": 4096, "BSTAR": 0, "MEAN_MOTION_DOT": -2.51e-06, "MEAN_MOTION_DDOT": 0}, "tle": {"line1": "1 40267U 14060A   25353.90183633 -.00000251  00000+0  00000+0 0  9998", "line2": "2 40267   0.0317 125.7318 0000859 169.0702 259.2720  1.00271304 40960"}}, "geometry": {"type": "Point", "coordinates": [42.59769144423549, 0.0036320127240335705]}}, {"type": "Feature", "properties": {"norad_id": 40367, "name": "FENGYUN 2G", "group": "weather", "lat": -4.982684048732298, "lon": 1.3012916119856521, "alt_km": 35788.31539308402, "timestamp": "2025-12-20T11:30:28.013452+00:00", "meta": {"OBJECT_NAME": "FENGYUN 2G", "OBJECT_ID": "2014-090A", "EPOCH": "2025-12-19T18:56:11.651136", "MEAN_MOTION": 1.00261653, "ECCENTRICITY": 0.00026778, "INCLINATION": 5.1853, "RA_OF_ASC_NODE": 75.0175, "ARG_OF_PERICENTER": 203.1106, "MEAN_ANOMALY": 193.8582, "EPHEMERIS_TYPE": 0, "CLASSIFICATION_TYPE": "U", "NORAD_CAT_ID": 40367, "ELEMENT_SET_NO": 999, "REV_AT_EPOCH": 4020, "BSTAR": 0, "MEAN_MOTION_DOT": -2.79e-06, "MEAN_MOTION_DDOT": 0}, "tle": {"line1": "1 40367U 14090A   25353.78902374 -.00000279  00000+0  00000+0 0  9999", "line2": "2 40367   5.1853  75.0175 0002677 203.1106 193.8582  1.00261653 40200"}}, "geometry": {"type": "Point", "coordinates": [1.3012916119856521, -4.982684048732298]}}, {"type": "Feature", "properties": {"norad_id": 40732, "name": "METEOSAT-11 (MSG-4)", "group": "weather", "lat": -0.9306017471394686, "lon": -88.88694160781479, "alt_km": 35785.12725628485, "timestamp": "2025-12-20T11:30:28.013465+00:00", "meta": {"OBJECT_NAME": "METEOSAT-11 (MSG-4)", "OBJECT_ID": "2015-034A", "EPOCH": "2025-12-20T03:00:07.388064", "MEAN_MOTION": 1.00269802, "ECCENTRICITY": 8.44e-05, "INCLINATION": 2.7545, "RA_OF_ASC_NODE": 71.9831, "ARG_OF_PERICENTER": 135.8011, "MEAN_ANOMALY": 295.4135, "EPHEMERIS_TYPE": 0, "CLASSIFICATION_TYPE": "U", "NORAD_CAT_ID": 40732, "ELEMENT_SET_NO": 999, "REV_AT_EPOCH": 542, "BSTAR": 0, "MEAN_MOTION_DOT": 8.3e-07, "MEAN_MOTION_DDOT": 0}, "tle": {"line1": "1 40732U 15034A   25354.12508551  .00000083  00000+0  00000+0 0  9994", "line2": "2 40732   2.7545  71.9831 0000844 135.8011 295.4135  1.00269802  5423"}}, "geometry": {"type": "Point", "coordinates": [-88.88694160781479, -0.9306017471394686]}}, {"type": "Feature", "properties": {"norad_id": 41105, "name": "ELEKTRO-L 2", "group": "weather", "lat": 0.5543851097322272, "lon": -112.53967301307293, "alt_km": 35773.50411209264, "timestamp": "2025-12-20T11:30:28.013476+00:00", "meta": {"OBJECT_NAME": "ELEKTRO-L 2", "OBJECT_ID": "2015-074A", "EPOCH": "2025-12-20T01:10:35.962176", "MEAN_MOTION": 1.00272605, "ECCENTRICITY": 0.0003524, "INCLINATION": 6.243, "RA_OF_ASC_NODE": 72.7416, "ARG_OF_PERICENTER": 209.3854, "MEAN_ANOMALY": 169.9333, "EPHEMERIS_TYPE": 0, "CLASSIFICATION_TYPE": "U", "NORAD_CAT_ID": 41105, "ELEMENT_SET_NO": 999, "REV_AT_EPOCH": 3671, "BSTAR": 0, "MEAN_MOTION_DOT": -9.8e-07, "MEAN_MOTION_DDOT": 0}, "tle": {"line1": "1 41105U 15074A   25354.04902734 -.00000098  00000+0  00000+0 0  9992", "line2": "2 41105   6.2430  72.7416 0003524 209.3854 169.9333  1.00272605 36714"}}, "geometry": {"type": "Point", "coordinates": [-112.53967301307293, 0.5543851097322272]}}, {"type": "Feature", "properties": {"norad_id": 41752, "name": "INSAT-3DR", "group": "weather", "lat": -0.10997205077954549, "lon": -23.94407431692438, "alt_km": 35760.33657472812, "timestamp": "2025-12-20T11:30:28.013488+00:00", "meta": {"OBJECT_NAME": "INSAT-3DR", "OBJECT_ID": "2016-054A", "EPOCH": "2025-12-20T03:18:35.620128", "MEAN_MOTION": 1.00271606, "ECCENTRICITY": 0.0014128, "INCLINATION": 0.1099, "RA_OF_ASC_NODE": 86.4008, "ARG_OF_PERICENTER": 185.1438, "MEAN_ANOMALY": 301.0691, "EPHEMERIS_TYPE": 0, "CLASSIFICATION_TYPE": "U", "NORAD_CAT_ID": 41752, "ELEMENT_SET_NO": 999, "REV_AT_EPOCH": 3402, "BSTAR": 0, "MEAN_MOTION_DOT": -5.3e-07, "MEAN_MOTION_DDOT": 0}, "tle": {"line1": "1 41752U 16054A   25354.13791227 -.00000053  00000+0  00000+0 0  9993", "line2": "2 41752   0.1099  86.4008 0014128 185.1438 301.0691  1.00271606 34024"}}, "geometry": {"type": "Point", "coordinates": [-23.94407431692438, -0.10997205077954549]}}]}